MEAN_MOTION;ECCENTRICITY;INCLINATION;RA_OF_ASC_NODE;ARG_OF_PERICENTER;MEAN_ANOMALY;BSTAR;MEAN_MOTION_DOT;MEAN_MOTION_DDOT;TYPE
2.00568995;0.0131111;54.0505;194.0692;229.6115;314.4161;0;-2.0E-8;0;Navigation
2.00568995;0.0131111;54.0505;194.0692;229.6115;314.4161;0;-2.0E-8;0;Navigation
2.00569049;0.0131145;54.0504;194.0353;229.6313;196.9842;0;-1.0E-7;0;Navigation
2.00569075;0.0131167;54.0504;194.0189;229.6405;128.6442;0;-1.4E-7;0;Navigation
2.00569106;0.0131193;54.0504;194.0003;229.6523;100.5837;0;-1.7E-7;0;Navigation
2.00569144;0.0131221;54.0504;193.9782;229.6667;134.3416;0;-1.9E-7;0;Navigation
2.00569175;0.0131244;54.0503;193.9604;229.6765;91.2694;0;-2.0E-7;0;Navigation
2.00569175;0.0131244;54.0503;193.9604;229.6765;91.2694;0;-2.0E-7;0;Navigation
2.00569254;0.0131294;54.0503;193.9177;229.7014;130.2474;0;-1.8E-7;0;Navigation
2.00569254;0.0131294;54.0503;193.9177;229.7014;130.2474;0;-1.8E-7;0;Navigation
2.00569375;0.0131366;54.0502;193.8553;229.738;161.2664;0;-9.0E-8;0;Navigation
2.00569375;0.0131366;54.0502;193.8553;229.738;161.2664;0;-9.0E-8;0;Navigation
2.00569375;0.0131366;54.0502;193.8553;229.738;161.2664;0;-9.0E-8;0;Navigation
2.00569626;0.0131507;54.05;193.7371;229.8075;104.232;0;3.0E-8;0;Navigation
2.00569626;0.0131507;54.05;193.7371;229.8075;104.232;0;3.0E-8;0;Navigation
2.00569714;0.0131561;54.0499;193.6973;229.832;93.6237;0;-1.0E-8;0;Navigation
2.00569714;0.0131561;54.0499;193.6973;229.832;93.6237;0;-1.0E-8;0;Navigation
2.00569789;0.0131574;54.0498;193.6653;229.8457;303.9901;0;-8.0E-8;0;Navigation
2.00569789;0.0131574;54.0498;193.6653;229.8457;303.9901;0;-8.0E-8;0;Navigation
2.0056986;0.0131615;54.0497;193.6337;229.8656;145.0132;0;-1.6E-7;0;Navigation
2.0056986;0.0131615;54.0497;193.6337;229.8656;145.0132;0;-1.6E-7;0;Navigation
2.00569959;0.0131656;54.0495;193.5897;229.888;210.419;0;-2.9E-7;0;Navigation
2.00569959;0.0131656;54.0495;193.5897;229.888;210.419;0;-2.9E-7;0;Navigation
2.00569959;0.0131656;54.0495;193.5897;229.888;210.419;0;-2.9E-7;0;Navigation
2.00570138;0.0131736;54.0494;193.5075;229.9267;232.4576;0;-4.6E-7;0;Navigation
2.0057021;0.0131794;54.0493;193.4741;229.9494;107.6556;0;-4.7E-7;0;Navigation
2.00570256;0.013182;54.0493;193.4499;229.9632;178.8537;0;-4.6E-7;0;Navigation
2.00570256;0.013182;54.0493;193.4499;229.9632;178.8537;0;-4.6E-7;0;Navigation
2.00570379;0.0131909;54.0491;193.3871;230.0033;218.1718;0;-3.5E-7;0;Navigation
2.0057041;0.0131935;54.0491;193.3704;230.0154;155.4836;0;-3.0E-7;0;Navigation
2.0057041;0.0131935;54.0491;193.3704;230.0154;155.4836;0;-3.0E-7;0;Navigation
2.0057041;0.0131935;54.0491;193.3704;230.0154;155.4836;0;-3.0E-7;0;Navigation
2.0057041;0.0131935;54.0491;193.3704;230.0154;155.4836;0;-3.0E-7;0;Navigation
2.0057041;0.0131935;54.0491;193.3704;230.0154;155.4836;0;-3.0E-7;0;Navigation
2.00570647;0.013211;54.0487;193.216;230.1045;26.9635;0;1.5E-7;0;Navigation
2.00570647;0.013211;54.0487;193.216;230.1045;26.9635;0;1.5E-7;0;Navigation
2.00570647;0.013211;54.0487;193.216;230.1045;26.9635;0;1.5E-7;0;Navigation
2.00570647;0.013211;54.0487;193.216;230.1045;26.9635;0;1.5E-7;0;Navigation
2.00570647;0.013211;54.0487;193.216;230.1045;26.9635;0;1.5E-7;0;Navigation
2.00570816;0.0132263;54.0485;193.0857;230.1883;185.1033;0;2.4E-7;0;Navigation
2.00570816;0.0132263;54.0485;193.0857;230.1883;185.1033;0;2.4E-7;0;Navigation
2.00570892;0.0132324;54.0483;193.0278;230.2226;136.404;0;1.5E-7;0;Navigation
2.00570908;0.0132345;54.0483;193.0133;230.2328;35.1817;0;1.2E-7;0;Navigation
2.00570939;0.0132367;54.0483;192.9914;230.2458;64.0681;0;7.0E-8;0;Navigation
2.00571005;0.013242;54.0482;192.9431;230.2774;203.4949;0;-4.0E-8;0;Navigation
2.00571055;0.0132449;54.0482;192.9118;230.2934;40.1394;0;-1.0E-7;0;Navigation
2.00571131;0.0132501;54.0481;192.8638;230.3235;175.4995;0;-1.4E-7;0;Navigation
2.00571131;0.0132501;54.0481;192.8638;230.3235;175.4995;0;-1.4E-7;0;Navigation
2.00571205;0.0132551;54.0481;192.8203;230.3505;230.3073;0;-1.1E-7;0;Navigation
2.00571263;0.0132585;54.0481;192.7886;230.3669;74.1793;0;-7.0E-8;0;Navigation
2.00571287;0.0132584;54.0481;192.7757;230.3754;303.3691;0;-4.0E-8;0;Navigation
2.00571347;0.0132622;54.0481;192.7452;230.3936;126.4715;0;2.0E-8;0;Navigation
2.00571428;0.0132669;54.048;192.7044;230.4189;132.2026;0;1.0E-7;0;Navigation
2.00571514;0.0132711;54.048;192.6625;230.4426;157.5871;0;1.6E-7;0;Navigation
2.00571559;0.0132732;54.048;192.6426;230.4516;153.0626;0;1.7E-7;0;Navigation
2.00571685;0.01328;54.0479;192.5833;230.4885;126.9725;0;1.2E-7;0;Navigation
2.00571784;0.013285;54.0478;192.5367;230.5183;235.6791;0;3.0E-8;0;Navigation
2.00571814;0.0132876;54.0478;192.5224;230.5285;131.944;0;-1.0E-8;0;Navigation
2.00571814;0.0132876;54.0478;192.5224;230.5285;131.944;0;-1.0E-8;0;Navigation
2.00571866;0.0132906;54.0478;192.4968;230.5456;227.6962;0;-8.0E-8;0;Navigation
2.00571899;0.0132923;54.0478;192.4816;230.5533;136.8006;0;-1.2E-7;0;Navigation
2.00571899;0.0132923;54.0478;192.4816;230.5533;136.8006;0;-1.2E-7;0;Navigation
2.00572114;0.0133033;54.0477;192.3811;230.6088;125.904;0;-2.7E-7;0;Navigation
2.00572114;0.0133033;54.0477;192.3811;230.6088;125.904;0;-2.7E-7;0;Navigation
2.00572153;0.0133063;54.0477;192.3596;230.6257;148.293;0;-2.6E-7;0;Navigation
2.00572201;0.0133097;54.0477;192.3351;230.6407;224.5463;0;-2.3E-7;0;Navigation
2.00572262;0.0133133;54.0477;192.3036;230.6599;66.2378;0;-1.7E-7;0;Navigation
2.00572338;0.0133178;54.0477;192.2624;230.6852;79.5634;0;-6.0E-8;0;Navigation
2.00572338;0.0133178;54.0477;192.2624;230.6852;79.5634;0;-6.0E-8;0;Navigation
2.00572418;0.0133226;54.0477;192.2145;230.715;213.1736;0;1.1E-7;0;Navigation
2.00572471;0.0133257;54.0477;192.1805;230.7335;97.8664;0;2.2E-7;0;Navigation
2.00572471;0.0133257;54.0477;192.1805;230.7335;97.8664;0;2.2E-7;0;Navigation
2.0057248;0.0133264;54.0477;192.1735;230.7379;223.2744;0;2.5E-7;0;Navigation
2.005725;0.0133281;54.0477;192.1584;230.7475;131.2683;0;3.0E-7;0;Navigation
2.00572584;0.013334;54.0477;192.0943;230.7812;191.6515;0;4.7E-7;0;Navigation
2.00572621;0.0133376;54.0477;192.0624;230.8009;40.8522;0;5.3E-7;0;Navigation
2.00572621;0.0133376;54.0477;192.0624;230.8009;40.8522;0;5.3E-7;0;Navigation
2.00572673;0.0133415;54.0477;192.0172;230.8258;125.2319;0;5.7E-7;0;Navigation
2.0057269;0.0133424;54.0477;192.002;230.8337;34.8748;0;5.7E-7;0;Navigation
2.00572714;0.0133445;54.0477;191.9803;230.8478;61.3199;0;5.6E-7;0;Navigation
2.00572714;0.0133445;54.0477;191.9803;230.8478;61.3199;0;5.6E-7;0;Navigation
2.00572816;0.0133545;54.0478;191.8861;230.9065;297.2624;0;4.1E-7;0;Navigation
2.00572861;0.0133581;54.0478;191.8502;230.9288;218.5023;0;3.4E-7;0;Navigation
2.00572875;0.013359;54.0478;191.8404;230.9332;32.8472;0;3.2E-7;0;Navigation
2.00572875;0.013359;54.0478;191.8404;230.9332;32.8472;0;3.2E-7;0;Navigation
2.00572992;0.0133662;54.0479;191.7583;230.9814;53.8923;0;2.4E-7;0;Navigation
2.00573036;0.0133685;54.0479;191.7296;230.9976;204.1637;0;2.5E-7;0;Navigation
2.00573105;0.0133717;54.048;191.6886;231.019;214.2676;0;3.1E-7;0;Navigation
2.00573161;0.0133747;54.048;191.6569;231.0355;57.9352;0;3.7E-7;0;Navigation
2.00573192;0.0133766;54.048;191.6377;231.0483;39.3389;0;4.1E-7;0;Navigation
2.00573246;0.0133789;54.0481;191.6094;231.065;183.7254;0;4.7E-7;0;Navigation
2.00573325;0.0133824;54.0481;191.5691;231.086;181.2849;0;5.4E-7;0;Navigation
2.005734;0.0133859;54.0482;191.5331;231.106;102.7871;0;5.6E-7;0;Navigation
2.005734;0.0133859;54.0482;191.5331;231.106;102.7871;0;5.6E-7;0;Navigation
2.00573528;0.0133917;54.0482;191.4712;231.1433;124.3827;0;5.1E-7;0;Navigation
2.00573528;0.0133917;54.0482;191.4712;231.1433;124.3827;0;5.1E-7;0;Navigation
2.00573528;0.0133917;54.0482;191.4712;231.1433;124.3827;0;5.1E-7;0;Navigation
2.0057367;0.0133974;54.0483;191.4039;231.1803;242.2799;0;3.6E-7;0;Navigation
2.00573754;0.0134008;54.0483;191.3652;231.2006;211.7735;0;2.6E-7;0;Navigation
2.00573835;0.0134035;54.0484;191.3271;231.2168;169.6953;0;1.8E-7;0;Navigation
2.00573858;0.0134049;54.0484;191.3144;231.225;35.8922;0;1.6E-7;0;Navigation
2.00573919;0.0134065;54.0484;191.2858;231.2374;184.8658;0;1.3E-7;0;Navigation
2.00573924;0.0134067;54.0484;191.2831;231.2389;232.3793;0;1.3E-7;0;Navigation
2.00573995;0.0134101;54.0485;191.2484;231.2583;129.9006;0;1.4E-7;0;Navigation
2.00574008;0.0134104;54.0485;191.2419;231.2613;245.6806;0;1.5E-7;0;Navigation
2.00574075;0.0134133;54.0485;191.2082;231.2782;126.8733;0;2.0E-7;0;Navigation
2.00574086;0.0134142;54.0485;191.2011;231.2844;253.2646;0;2.1E-7;0;Navigation
2.00574165;0.0134178;54.0486;191.1594;231.3061;275.981;0;3.3E-7;0;Navigation
2.00574227;0.0134209;54.0487;191.1214;231.3275;231.6116;0;4.5E-7;0;Navigation
2.0057425;0.0134222;54.0487;191.1072;231.3376;123.9065;0;5.0E-7;0;Navigation
2.00574261;0.0134227;54.0487;191.0997;231.3409;257.6128;0;5.3E-7;0;Navigation
2.0057431;0.0134252;54.0488;191.0664;231.3609;129.6565;0;6.5E-7;0;Navigation
2.00574338;0.0134265;54.0488;191.0464;231.3705;126.6524;0;7.1E-7;0;Navigation
2.00574357;0.0134277;54.0488;191.0321;231.3776;20.316;0;7.5E-7;0;Navigation
2.00574388;0.0134292;54.0489;191.0063;231.3923;120.0244;0;8.2E-7;0;Navigation
2.00574406;0.0134304;54.0489;190.991;231.3994;31.6485;0;8.6E-7;0;Navigation
2.00574439;0.0134322;54.049;190.961;231.4157;204.8076;0;9.1E-7;0;Navigation
2.00574439;0.0134322;54.049;190.961;231.4157;204.8076;0;9.1E-7;0;Navigation
2.00574493;0.0134367;54.049;190.9089;231.4466;53.1681;0;9.5E-7;0;Navigation
2.00574521;0.0134389;54.0491;190.88;231.4625;206.7684;0;9.4E-7;0;Navigation
2.00574564;0.0134421;54.0492;190.8389;231.4867;217.2361;0;9.0E-7;0;Navigation
2.00574607;0.0134453;54.0493;190.7979;231.5123;227.2267;0;8.3E-7;0;Navigation
2.00574607;0.0134453;54.0493;190.7979;231.5123;227.2267;0;8.3E-7;0;Navigation
2.00574669;0.013449;54.0494;190.743;231.5406;123.2806;0;7.2E-7;0;Navigation
2.005747;0.0134505;54.0495;190.7173;231.5554;220.216;0;6.7E-7;0;Navigation
2.0057472;0.0134505;54.0495;190.7022;231.5568;129.0426;0;6.5E-7;0;Navigation
2.00574752;0.0134512;54.0496;190.6773;231.5665;212.4271;0;6.2E-7;0;Navigation
